1 20253U 89077A   26186.31647402 -.00000359  00000-0  00000-0 0  9991
2 20253  12.4163 351.0543 0003715  63.8853 108.0107  1.00268105260740
1 20776U 90079A   26186.23727961  .00000012  00000-0  00000-0 0  9990
2 20776  13.3325 349.6957 0003286 131.4937 139.2980  0.98576314   219
1 22787U 93056A   26186.15455704  .00000133  00000-0  00000-0 0  9990
2 22787  11.9009   3.4550 0004069   9.5921 354.4520  1.00277249118735
1 23467U 95003A   26186.28517147 -.00000013  00000-0  00000-0 0  9992
2 23467   9.6815  13.0730 0003043  86.9734  98.1488  1.00274614115138
1 23967U 96042A   26186.42439698 -.00000289  00000-0  00000-0 0  9996
2 23967  11.1340  16.9819 0006261 112.1687 258.2788  1.00207160109674
1 25544U 98067A   26186.44376576  .00008907  00000-0  17013-3 0  9994
2 25544  51.6303 209.7275 0006728 258.7638 101.2595 15.48905966574589
1 25967U 99063A   26186.35828624 -.00000179  00000-0  00000-0 0  9995
2 25967   9.8493  27.1141 0002143  94.6011 267.6385  1.00274243 97535
1 27168U 02001A   26186.22399367  .00000106  00000-0  00000-0 0  9998
2 27168  11.1997  21.7905 0098869   8.9618 352.0376  1.00273921 33142
1 27607U 02058C   26186.29437210  .00001271  00000-0  16659-3 0  9999
2 27607  64.5520  72.9616 0074805 259.0885 100.1798 14.83086679267146
1 28117U 03057A   26186.59172069 -.00000096  00000-0  00000-0 0  9992
2 28117   8.9423  33.7319 0002858  90.7194  87.7766  1.00272492 82633
1 28899U 05044A   26185.53572920 -.00000250  00000-0  00000-0 0  9992
2 28899   5.1161  43.6573 0003140  51.2893 163.9427  1.00270872 75692
1 30794U 07007B   26186.11032176 -.00000261  00000-0  00000-0 0  9991
2 30794   5.3449  73.5234 0003583  32.8920 311.6192  1.00273003 70878
1 32294U 07056B   26184.03933757  .00000148  00000-0  00000+0 0  9998
2 32294   5.2916  73.3148 0003467  33.1987 213.8109  1.00273860 68355
1 35943U 09054B   26186.51792772  .00000038  00000-0  00000-0 0  9996
2 35943   0.0726 118.9744 0002984 350.1447  63.8742  1.00272949 61496
1 36582U 10021B   26186.57928515  .00000102  00000-0  00000-0 0  9996
2 36582   0.0417 153.4030 0002517 324.4595  27.4599  1.00271129 59149
1 38098U 12011A   26186.59102735 -.00000045  00000-0  00000-0 0  9998
2 38098   0.0226  59.3829 0001712  42.6977 106.3595  1.00271439  7375
1 39034U 12075A   26186.58717185  .00000113  00000-0  00000-0 0  9994
2 39034   0.0663   3.0265 0003756 109.8317  74.8612  1.00271702 49340
1 39215U 13038A   26185.58356203  .00000145  00000-0  00000-0 0  9999
2 39215   2.9988   1.2675 0002194 118.1369  38.1475  1.00271059 44195
1 40296U 14069A   26186.13117043  .00000318  00000-0  00000-0 0  9996
2 40296  63.4529 213.5871 6641654 270.4436  19.8074  2.00596317 85596
1 40931U 15052B   25151.18580782  .00001310  00000-0  87238-4 0  9990
2 40931   6.0001  24.1284 0012872 339.0660  20.8941 14.78806187523042
1 43678U 18084H   26186.57522192  .00004119  00000-0  33122-3 0  9994
2 43678  98.1210  23.5861 0013094 113.7687 246.4910 15.00538406418973
1 43700U 18090A   26186.58179850  .00000158  00000-0  00000-0 0  9992
2 43700   0.0159  65.5704 0002304  78.7208  14.5406  1.00274128 27867
1 43803U 18099AX  26186.16564302  .00029370  00000-0  88467-3 0  9992
2 43803  97.4114 249.0682 0005889 190.2408 169.8716 15.34276866416389
1 44453U 19046A   26184.17035897 -.00000016  00000-0  00000+0 0  9998
2 44453  63.1493  48.6931 7079920 274.9135  14.6170  2.00597614 50664
1 44909U 19096E   26186.29953042  .00000031  00000-0  69228-4 0  9993
2 44909  82.5235 327.6688 0218587 102.0130 260.5561 12.79749004304668
1 45254U 20015A   26186.41332369 -.00000064  00000-0  00000-0 0  9993
2 45254  65.5388 317.0552 6851957 277.5962  15.5564  2.00606389 46650
1 52145U 22030A   26185.91483470  .00000201  00000-0  00000-0 0  9995
2 52145  62.6801 138.8730 6788641 272.8477  17.6324  2.00611159 31382
1 57167U 23091B   26010.59363612  .08733485  25619-5  12458-2 0  9993
2 57167  97.4978  91.1570 0009532 282.8011  77.2220 16.34765267141469
1 59112U 24043Q   26185.97773330  .00063960  00000-0  78271-3 0  9994
2 59112  97.5552 337.4841 0007050 138.7843 221.3947 15.60161084130665
1 67291U 25313AV  26186.17502962  .00024112  00000-0  91580-3 0  9990
2 67291  97.3920 261.2026 0007232 289.5663  70.4794 15.26789806 28732
1 26635U 00080A   21013.46269075 0.00000000  00000-0  00000-0 0    09
2 26635   9.2857  29.8038 0014383 186.3086 173.6859  1.00273100    09
1 34810U 09020A   26118.58802400 0.00000000  00000-0  00000-0 0    05
2 34810   3.0809  80.0043 0003222 250.4250 109.5484  1.00270000    01
1 40614U 15022B   25359.93496764 0.00000000  00000-0  00000-0 0    00
2 40614   0.0160 108.2839 0003453 352.8976   7.0980  1.00270000    04
